[{"OBJECT_NAME":"SHIYAN-28B 01","OBJECT_ID":"2025-145A","EPOCH":"2026-03-08T20:29:47.684832","MEAN_MOTION":14.29356521,"ECCENTRICITY":0.00033669,"INCLINATION":10.9981,"RA_OF_ASC_NODE":260.401,"ARG_OF_PERICENTER":306.4747,"MEAN_ANOMALY":53.517,"EPHEMERIS_TYPE":0,"CLASSIFICATION_TYPE":"U","NORAD_CAT_ID":64753,"ELEMENT_SET_NO":999,"REV_AT_EPOCH":3553,"BSTAR":0.00013091269,"MEAN_MOTION_DOT":7.71e-6,"MEAN_MOTION_DDOT":0},{"OBJECT_NAME":"THORAD AGENA D DEB","OBJECT_ID":"1970-025PZ","EPOCH":"2026-03-09T13:44:24.356832","MEAN_MOTION":14.00682499,"ECCENTRICITY":0.01424192,"INCLINATION":98.75,"RA_OF_ASC_NODE":287.6081,"ARG_OF_PERICENTER":214.4166,"MEAN_ANOMALY":205.9219,"EPHEMERIS_TYPE":0,"CLASSIFICATION_TYPE":"U","NORAD_CAT_ID":19391,"ELEMENT_SET_NO":999,"REV_AT_EPOCH":90514,"BSTAR":0.0012903278,"MEAN_MOTION_DOT":2.056e-5,"MEAN_MOTION_DDOT":0}]
